<?xml version="1.0" encoding="UTF-8"?>
<kml xmlns="http://www.opengis.net/kml/2.2">
  <Document>
    <name>03-3H51U4-CR.kml</name>

    <Style id="lineStyle_0">
      <LineStyle>
        <color>ff4285f4</color>
        <width>3</width>
      </LineStyle>
      <LabelStyle>
        <scale>0.8</scale>
      </LabelStyle>
    </Style>

    <Folder>
      <name>CR</name>
      <Placemark>
        <name>CR</name>
        <description><![CDATA[Source: 03-3H51U4-CR.xml<br/>Description: N/A<br/>Profile: Yes<br/>Points: 63<br/>Length (ft): 3549.99]]></description>
        <styleUrl>#lineStyle_0</styleUrl>
        <LineString>
          <tessellate>1</tessellate>
          <altitudeMode>absolute</altitudeMode>
          <coordinates>
            -121.05632299,39.16771710,699.20
            -121.05629018,39.16777911,699.00
            -121.05625671,39.16784092,698.80
            -121.05622261,39.16790251,698.61
            -121.05618786,39.16796388,698.41
            -121.05615247,39.16802503,698.21
            -121.05529385,39.16949264,693.47
            -121.05525937,39.16955252,693.28
            -121.05522581,39.16961273,693.08
            -121.05519317,39.16967324,692.89
            -121.05516147,39.16973405,692.70
            -121.05513070,39.16979515,692.50
            -121.05510088,39.16985654,692.31
            -121.05507200,39.16991820,692.12
            -121.05504407,39.16998012,691.92
            -121.05501709,39.17004229,691.73
            -121.05499107,39.17010472,692.04
            -121.05496601,39.17016738,692.49
            -121.05494191,39.17023027,692.95
            -121.05491878,39.17029338,693.40
            -121.05489662,39.17035670,693.85
            -121.05480363,39.17062886,695.80
            -121.05478161,39.17069465,696.27
            -121.05476047,39.17076061,696.74
            -121.05474021,39.17082674,697.21
            -121.05472082,39.17089303,697.68
            -121.05470231,39.17095948,698.15
            -121.05468469,39.17102606,698.62
            -121.05466795,39.17109279,699.09
            -121.05465209,39.17115964,699.56
            -121.05463712,39.17122662,700.03
            -121.05462304,39.17129372,700.50
            -121.05460985,39.17136093,700.97
            -121.05459755,39.17142824,701.44
            -121.05458615,39.17149564,701.91
            -121.05457564,39.17156313,702.38
            -121.05456603,39.17163070,702.85
            -121.05455731,39.17169835,703.32
            -121.05454949,39.17176606,703.79
            -121.05454256,39.17183383,704.26
            -121.05425906,39.17480313,726.59
            -121.05425370,39.17486897,727.29
            -121.05425019,39.17493488,727.99
            -121.05424853,39.17500084,728.69
            -121.05424872,39.17506681,729.39
            -121.05425076,39.17513276,730.09
            -121.05425466,39.17519866,730.79
            -121.05426040,39.17526448,731.49
            -121.05426798,39.17533018,732.19
            -121.05427741,39.17539574,732.89
            -121.05428868,39.17546112,733.58
            -121.05430178,39.17552630,734.28
            -121.05431670,39.17559124,734.98
            -121.05433344,39.17565591,735.68
            -121.05435200,39.17572028,736.24
            -121.05437235,39.17578432,735.64
            -121.05439450,39.17584800,735.04
            -121.05441843,39.17591128,734.44
            -121.05444413,39.17597415,733.84
            -121.05447158,39.17603656,733.23
            -121.05450079,39.17609849,732.63
            -121.05453172,39.17615991,732.03
            -121.05501957,39.17709827,724.55
          </coordinates>
        </LineString>
      </Placemark>
    </Folder>
  </Document>
</kml>