<?xml version="1.0" encoding="UTF-8"?>
<kml xmlns="http://www.opengis.net/kml/2.2">
  <Document>
    <name>03-3H51U4-A.kml</name>

    <Style id="lineStyle_0">
      <LineStyle>
        <color>ff4285f4</color>
        <width>3</width>
      </LineStyle>
      <LabelStyle>
        <scale>0.8</scale>
      </LabelStyle>
    </Style>

    <Folder>
      <name>A</name>
      <Placemark>
        <name>A</name>
        <description><![CDATA[Source: 03-3H51U4-A.xml<br/>Description: A Alignment 60 MPH<br/>Profile: Yes<br/>Points: 339<br/>Length (ft): 17783.60]]></description>
        <styleUrl>#lineStyle_0</styleUrl>
        <LineString>
          <tessellate>1</tessellate>
          <altitudeMode>clampToGround</altitudeMode>
          <coordinates>
            -121.06418889,39.15507790,0.00
            -121.06107986,39.15796280,0.00
            -121.06102358,39.15801527,0.00
            -121.06096763,39.15806795,0.00
            -121.06091199,39.15812083,0.00
            -121.06085668,39.15817392,0.00
            -121.06080169,39.15822721,0.00
            -121.06074702,39.15828070,0.00
            -121.06069269,39.15833440,0.00
            -121.06063868,39.15838829,0.00
            -121.06058500,39.15844238,0.00
            -121.06053165,39.15849667,0.00
            -121.06047863,39.15855116,0.00
            -121.06042594,39.15860584,0.00
            -121.06037358,39.15866072,0.00
            -121.06032156,39.15871579,0.00
            -121.06026988,39.15877105,0.00
            -121.06021854,39.15882650,0.00
            -121.06016753,39.15888214,0.00
            -121.06011686,39.15893796,0.00
            -121.06006653,39.15899398,0.00
            -121.06001654,39.15905017,0.00
            -121.05996690,39.15910656,0.00
            -121.05991760,39.15916312,0.00
            -121.05986865,39.15921987,0.00
            -121.05982004,39.15927679,0.00
            -121.05977178,39.15933390,0.00
            -121.05972386,39.15939118,0.00
            -121.05967630,39.15944864,0.00
            -121.05962909,39.15950627,0.00
            -121.05958223,39.15956408,0.00
            -121.05953572,39.15962206,0.00
            -121.05948956,39.15968021,0.00
            -121.05944376,39.15973853,0.00
            -121.05939831,39.15979702,0.00
            -121.05935323,39.15985568,0.00
            -121.05930850,39.15991450,0.00
            -121.05926412,39.15997348,0.00
            -121.05922011,39.16003263,0.00
            -121.05917646,39.16009194,0.00
            -121.05913317,39.16015142,0.00
            -121.05909024,39.16021105,0.00
            -121.05904768,39.16027083,0.00
            -121.05900548,39.16033078,0.00
            -121.05896365,39.16039088,0.00
            -121.05892218,39.16045113,0.00
            -121.05888108,39.16051154,0.00
            -121.05884035,39.16057210,0.00
            -121.05879999,39.16063280,0.00
            -121.05875999,39.16069366,0.00
            -121.05872037,39.16075466,0.00
            -121.05868112,39.16081581,0.00
            -121.05864225,39.16087710,0.00
            -121.05860374,39.16093854,0.00
            -121.05856562,39.16100011,0.00
            -121.05852786,39.16106183,0.00
            -121.05849049,39.16112368,0.00
            -121.05845349,39.16118568,0.00
            -121.05841687,39.16124780,0.00
            -121.05838063,39.16131007,0.00
            -121.05834476,39.16137246,0.00
            -121.05830928,39.16143499,0.00
            -121.05827418,39.16149765,0.00
            -121.05823946,39.16156043,0.00
            -121.05820512,39.16162335,0.00
            -121.05817117,39.16168639,0.00
            -121.05813760,39.16174955,0.00
            -121.05810442,39.16181284,0.00
            -121.05807162,39.16187625,0.00
            -121.05803921,39.16193978,0.00
            -121.05800719,39.16200343,0.00
            -121.05797555,39.16206719,0.00
            -121.05794430,39.16213108,0.00
            -121.05791345,39.16219507,0.00
            -121.05788298,39.16225918,0.00
            -121.05785290,39.16232341,0.00
            -121.05782322,39.16238774,0.00
            -121.05779392,39.16245218,0.00
            -121.05776502,39.16251673,0.00
            -121.05773652,39.16258138,0.00
            -121.05770840,39.16264614,0.00
            -121.05768069,39.16271100,0.00
            -121.05765336,39.16277597,0.00
            -121.05762644,39.16284103,0.00
            -121.05759991,39.16290619,0.00
            -121.05757377,39.16297145,0.00
            -121.05754804,39.16303681,0.00
            -121.05752270,39.16310226,0.00
            -121.05749776,39.16316780,0.00
            -121.05747323,39.16323343,0.00
            -121.05744909,39.16329916,0.00
            -121.05742535,39.16336497,0.00
            -121.05740201,39.16343087,0.00
            -121.05737908,39.16349685,0.00
            -121.05735655,39.16356292,0.00
            -121.05733442,39.16362907,0.00
            -121.05731269,39.16369530,0.00
            -121.05729137,39.16376161,0.00
            -121.05727045,39.16382800,0.00
            -121.05724993,39.16389447,0.00
            -121.05722982,39.16396101,0.00
            -121.05721012,39.16402762,0.00
            -121.05719082,39.16409431,0.00
            -121.05717193,39.16416107,0.00
            -121.05715344,39.16422789,0.00
            -121.05713536,39.16429478,0.00
            -121.05711769,39.16436174,0.00
            -121.05710043,39.16442877,0.00
            -121.05708358,39.16449585,0.00
            -121.05668176,39.16611564,0.00
            -121.05666482,39.16618246,0.00
            -121.05664716,39.16624917,0.00
            -121.05662880,39.16631576,0.00
            -121.05660973,39.16638223,0.00
            -121.05658996,39.16644858,0.00
            -121.05656948,39.16651480,0.00
            -121.05654830,39.16658088,0.00
            -121.05652642,39.16664683,0.00
            -121.05650384,39.16671263,0.00
            -121.05648056,39.16677828,0.00
            -121.05645658,39.16684378,0.00
            -121.05643191,39.16690913,0.00
            -121.05640654,39.16697431,0.00
            -121.05638049,39.16703933,0.00
            -121.05635374,39.16710418,0.00
            -121.05632631,39.16716885,0.00
            -121.05629819,39.16723335,0.00
            -121.05626939,39.16729766,0.00
            -121.05623990,39.16736178,0.00
            -121.05620973,39.16742572,0.00
            -121.05617889,39.16748945,0.00
            -121.05614737,39.16755299,0.00
            -121.05611517,39.16761632,0.00
            -121.05608231,39.16767944,0.00
            -121.05604877,39.16774235,0.00
            -121.05601457,39.16780504,0.00
            -121.05597970,39.16786750,0.00
            -121.05594417,39.16792974,0.00
            -121.05590798,39.16799175,0.00
            -121.05587114,39.16805353,0.00
            -121.05529231,39.16901352,0.00
            -121.05525579,39.16907472,0.00
            -121.05521989,39.16913614,0.00
            -121.05518463,39.16919777,0.00
            -121.05514999,39.16925963,0.00
            -121.05511598,39.16932170,0.00
            -121.05508260,39.16938397,0.00
            -121.05504986,39.16944645,0.00
            -121.05501776,39.16950913,0.00
            -121.05498629,39.16957200,0.00
            -121.05495547,39.16963507,0.00
            -121.05492529,39.16969832,0.00
            -121.05489576,39.16976176,0.00
            -121.05486687,39.16982538,0.00
            -121.05483863,39.16988918,0.00
            -121.05481104,39.16995315,0.00
            -121.05478411,39.17001728,0.00
            -121.05475782,39.17008158,0.00
            -121.05473220,39.17014604,0.00
            -121.05470723,39.17021066,0.00
            -121.05468292,39.17027543,0.00
            -121.05465927,39.17034034,0.00
            -121.05463628,39.17040540,0.00
            -121.05461396,39.17047061,0.00
            -121.05459230,39.17053594,0.00
            -121.05457130,39.17060141,0.00
            -121.05455097,39.17066700,0.00
            -121.05453132,39.17073272,0.00
            -121.05451233,39.17079856,0.00
            -121.05449401,39.17086451,0.00
            -121.05447637,39.17093058,0.00
            -121.05445939,39.17099675,0.00
            -121.05444310,39.17106302,0.00
            -121.05442747,39.17112939,0.00
            -121.05441253,39.17119586,0.00
            -121.05439826,39.17126241,0.00
            -121.05438467,39.17132906,0.00
            -121.05437176,39.17139578,0.00
            -121.05435953,39.17146258,0.00
            -121.05434798,39.17152946,0.00
            -121.05433711,39.17159640,0.00
            -121.05432692,39.17166341,0.00
            -121.05431742,39.17173048,0.00
            -121.05430860,39.17179761,0.00
            -121.05430046,39.17186478,0.00
            -121.05429301,39.17193201,0.00
            -121.05428624,39.17199928,0.00
            -121.05414634,39.17346450,0.00
            -121.05413987,39.17353144,0.00
            -121.05413323,39.17359838,0.00
            -121.05412643,39.17366531,0.00
            -121.05411948,39.17373222,0.00
            -121.05411236,39.17379913,0.00
            -121.05410507,39.17386602,0.00
            -121.05409763,39.17393291,0.00
            -121.05409002,39.17399978,0.00
            -121.05408226,39.17406664,0.00
            -121.05407433,39.17413349,0.00
            -121.05406624,39.17420033,0.00
            -121.05405799,39.17426716,0.00
            -121.05404957,39.17433397,0.00
            -121.05404100,39.17440077,0.00
            -121.05403226,39.17446756,0.00
            -121.05402337,39.17453434,0.00
            -121.05401431,39.17460110,0.00
            -121.05400509,39.17466785,0.00
            -121.05399571,39.17473459,0.00
            -121.05398616,39.17480131,0.00
            -121.05397646,39.17486802,0.00
            -121.05396660,39.17493471,0.00
            -121.05395657,39.17500139,0.00
            -121.05394638,39.17506806,0.00
            -121.05393603,39.17513471,0.00
            -121.05392552,39.17520134,0.00
            -121.05391485,39.17526796,0.00
            -121.05390402,39.17533457,0.00
            -121.05389303,39.17540115,0.00
            -121.05388188,39.17546772,0.00
            -121.05387056,39.17553428,0.00
            -121.05385909,39.17560082,0.00
            -121.05384745,39.17566734,0.00
            -121.05383566,39.17573384,0.00
            -121.05382370,39.17580033,0.00
            -121.05190496,39.18639503,0.00
            -121.05189297,39.18646303,0.00
            -121.05188159,39.18653110,0.00
            -121.05187084,39.18659923,0.00
            -121.05186072,39.18666741,0.00
            -121.05185122,39.18673566,0.00
            -121.05184235,39.18680395,0.00
            -121.05183410,39.18687229,0.00
            -121.05182648,39.18694067,0.00
            -121.05181950,39.18700909,0.00
            -121.05181313,39.18707756,0.00
            -121.05180740,39.18714605,0.00
            -121.05180230,39.18721458,0.00
            -121.05179782,39.18728313,0.00
            -121.05179398,39.18735170,0.00
            -121.05179076,39.18742030,0.00
            -121.05178817,39.18748891,0.00
            -121.05178622,39.18755753,0.00
            -121.05178489,39.18762616,0.00
            -121.05178419,39.18769480,0.00
            -121.05178413,39.18776344,0.00
            -121.05178469,39.18783208,0.00
            -121.05178588,39.18790071,0.00
            -121.05178770,39.18796934,0.00
            -121.05179016,39.18803795,0.00
            -121.05179324,39.18810655,0.00
            -121.05179695,39.18817513,0.00
            -121.05180129,39.18824369,0.00
            -121.05180626,39.18831222,0.00
            -121.05181186,39.18838072,0.00
            -121.05181809,39.18844919,0.00
            -121.05182495,39.18851762,0.00
            -121.05183243,39.18858601,0.00
            -121.05184054,39.18865436,0.00
            -121.05184928,39.18872266,0.00
            -121.05185864,39.18879092,0.00
            -121.05186864,39.18885911,0.00
            -121.05187925,39.18892726,0.00
            -121.05189050,39.18899534,0.00
            -121.05190236,39.18906335,0.00
            -121.05191485,39.18913130,0.00
            -121.05192797,39.18919918,0.00
            -121.05194171,39.18926698,0.00
            -121.05195606,39.18933470,0.00
            -121.05197104,39.18940235,0.00
            -121.05198665,39.18946990,0.00
            -121.05200287,39.18953737,0.00
            -121.05201971,39.18960475,0.00
            -121.05203716,39.18967203,0.00
            -121.05205524,39.18973922,0.00
            -121.05207393,39.18980630,0.00
            -121.05209323,39.18987327,0.00
            -121.05211315,39.18994014,0.00
            -121.05213369,39.19000690,0.00
            -121.05215483,39.19007353,0.00
            -121.05217659,39.19014005,0.00
            -121.05219896,39.19020645,0.00
            -121.05222193,39.19027272,0.00
            -121.05224552,39.19033886,0.00
            -121.05226971,39.19040487,0.00
            -121.05229450,39.19047074,0.00
            -121.05231990,39.19053647,0.00
            -121.05234590,39.19060206,0.00
            -121.05237250,39.19066751,0.00
            -121.05239971,39.19073280,0.00
            -121.05242751,39.19079794,0.00
            -121.05245591,39.19086293,0.00
            -121.05248490,39.19092775,0.00
            -121.05251449,39.19099242,0.00
            -121.05254468,39.19105691,0.00
            -121.05257545,39.19112124,0.00
            -121.05260681,39.19118539,0.00
            -121.05263876,39.19124937,0.00
            -121.05267130,39.19131317,0.00
            -121.05270442,39.19137679,0.00
            -121.05273813,39.19144022,0.00
            -121.05277242,39.19150346,0.00
            -121.05280728,39.19156651,0.00
            -121.05284273,39.19162937,0.00
            -121.05287875,39.19169202,0.00
            -121.05291534,39.19175448,0.00
            -121.05295251,39.19181673,0.00
            -121.05299025,39.19187877,0.00
            -121.05629922,39.19726838,0.00
            -121.05633730,39.19732962,0.00
            -121.05637617,39.19739057,0.00
            -121.05641580,39.19745121,0.00
            -121.05645621,39.19751155,0.00
            -121.05649739,39.19757157,0.00
            -121.05653932,39.19763127,0.00
            -121.05658202,39.19769064,0.00
            -121.05662547,39.19774969,0.00
            -121.05666967,39.19780839,0.00
            -121.05671461,39.19786675,0.00
            -121.05676030,39.19792476,0.00
            -121.05680672,39.19798242,0.00
            -121.05685388,39.19803971,0.00
            -121.05690176,39.19809664,0.00
            -121.05695037,39.19815320,0.00
            -121.05699969,39.19820937,0.00
            -121.05704973,39.19826517,0.00
            -121.05710048,39.19832058,0.00
            -121.05715193,39.19837559,0.00
            -121.05720408,39.19843020,0.00
            -121.05725692,39.19848441,0.00
            -121.05731045,39.19853821,0.00
            -121.05736466,39.19859159,0.00
            -121.05741955,39.19864455,0.00
            -121.05747511,39.19869709,0.00
            -121.05753134,39.19874919,0.00
            -121.05758822,39.19880086,0.00
            -121.05764577,39.19885209,0.00
            -121.05770396,39.19890287,0.00
            -121.05776280,39.19895320,0.00
            -121.05782228,39.19900307,0.00
            -121.05928302,39.20021581,0.00
          </coordinates>
        </LineString>
      </Placemark>
    </Folder>
  </Document>
</kml>