<?xml version="1.0" encoding="UTF-8"?>
<kml xmlns="http://www.opengis.net/kml/2.2">
  <Document>
    <name>4.023_PR_RW Points_S-BD_RW2</name>
    <Style id="lineStyle"><LineStyle><color>ff00ffff</color><width>2</width></LineStyle></Style>
    <Style id="pointStyle"><IconStyle><color>ff0000ff</color><scale>0.8</scale><Icon><href>http://maps.google.com/mapfiles/kml/shapes/placemark_circle.png</href></Icon></IconStyle><LabelStyle><scale>0.6</scale></LabelStyle></Style>
    <Style id="polyStyle"><LineStyle><color>8000ffff</color></LineStyle><PolyStyle><color>4000ffff</color></PolyStyle></Style>
    <Folder><name>Points</name>
      <Placemark>
        <name>Sta 0+000.00</name>
        <description>Type: IfcBuildingElementProxy</description>
        <styleUrl>#pointStyle</styleUrl>
        <Point>
          <altitudeMode>clampToGround</altitudeMode>
          <coordinates>-121.05648936,39.16675369,0.00</coordinates>
        </Point>
      </Placemark>
      <Placemark>
        <name>Sta 0+007.32</name>
        <description>Type: IfcBuildingElementProxy</description>
        <styleUrl>#pointStyle</styleUrl>
        <Point>
          <altitudeMode>clampToGround</altitudeMode>
          <coordinates>-121.05646681,39.16681608,0.00</coordinates>
        </Point>
      </Placemark>
      <Placemark>
        <name>Sta 0+014.63</name>
        <description>Type: IfcBuildingElementProxy</description>
        <styleUrl>#pointStyle</styleUrl>
        <Point>
          <altitudeMode>clampToGround</altitudeMode>
          <coordinates>-121.05644363,39.16687833,0.00</coordinates>
        </Point>
      </Placemark>
      <Placemark>
        <name>Sta 0+043.89</name>
        <description>Type: IfcBuildingElementProxy</description>
        <styleUrl>#pointStyle</styleUrl>
        <Point>
          <altitudeMode>clampToGround</altitudeMode>
          <coordinates>-121.05634462,39.16712587,0.00</coordinates>
        </Point>
      </Placemark>
      <Placemark>
        <name>Sta 0+058.52</name>
        <description>Type: IfcBuildingElementProxy</description>
        <styleUrl>#pointStyle</styleUrl>
        <Point>
          <altitudeMode>clampToGround</altitudeMode>
          <coordinates>-121.05629138,39.16724870,0.00</coordinates>
        </Point>
      </Placemark>
      <Placemark>
        <name>Sta 0+073.15</name>
        <description>Type: IfcBuildingElementProxy</description>
        <styleUrl>#pointStyle</styleUrl>
        <Point>
          <altitudeMode>clampToGround</altitudeMode>
          <coordinates>-121.05623566,39.16737086,0.00</coordinates>
        </Point>
      </Placemark>
      <Placemark>
        <name>Sta 0+087.78</name>
        <description>Type: IfcBuildingElementProxy</description>
        <styleUrl>#pointStyle</styleUrl>
        <Point>
          <altitudeMode>clampToGround</altitudeMode>
          <coordinates>-121.05617748,39.16749232,0.00</coordinates>
        </Point>
      </Placemark>
      <Placemark>
        <name>Sta 0+117.4</name>
        <description>Type: IfcBuildingElementProxy</description>
        <styleUrl>#pointStyle</styleUrl>
        <Point>
          <altitudeMode>clampToGround</altitudeMode>
          <coordinates>-121.05605378,39.16773304,0.00</coordinates>
        </Point>
      </Placemark>
      <Placemark>
        <name>Sta 0+138.99</name>
        <description>Type: IfcBuildingElementProxy</description>
        <styleUrl>#pointStyle</styleUrl>
        <Point>
          <altitudeMode>clampToGround</altitudeMode>
          <coordinates>-121.05595466,39.16791152,0.00</coordinates>
        </Point>
      </Placemark>
      <Placemark>
        <name>Sta 0+148.74</name>
        <description>Type: IfcBuildingElementProxy</description>
        <styleUrl>#pointStyle</styleUrl>
        <Point>
          <altitudeMode>clampToGround</altitudeMode>
          <coordinates>-121.05590887,39.16799025,0.00</coordinates>
        </Point>
      </Placemark>
      <Placemark>
        <name>Sta 0+029.26</name>
        <description>Type: IfcBuildingElementProxy</description>
        <styleUrl>#pointStyle</styleUrl>
        <Point>
          <altitudeMode>clampToGround</altitudeMode>
          <coordinates>-121.05639538,39.16700241,0.00</coordinates>
        </Point>
      </Placemark>
    </Folder>
  </Document></kml>