<?xml version="1.0" encoding="UTF-8"?>
<kml xmlns="http://www.opengis.net/kml/2.2">
  <Document>
    <name>4.033_PR_RW Points_S-BD_RW3</name>
    <Style id="lineStyle"><LineStyle><color>ff00ffff</color><width>2</width></LineStyle></Style>
    <Style id="pointStyle"><IconStyle><color>ff0000ff</color><scale>0.8</scale><Icon><href>http://maps.google.com/mapfiles/kml/shapes/placemark_circle.png</href></Icon></IconStyle><LabelStyle><scale>0.6</scale></LabelStyle></Style>
    <Style id="polyStyle"><LineStyle><color>8000ffff</color></LineStyle><PolyStyle><color>4000ffff</color></PolyStyle></Style>
    <Folder><name>Points</name>
      <Placemark>
        <name>Sta 0+000.00</name>
        <description>Type: IfcBuildingElementProxy</description>
        <styleUrl>#pointStyle</styleUrl>
        <Point>
          <altitudeMode>clampToGround</altitudeMode>
          <coordinates>-121.05528491,39.16900479,0.00</coordinates>
        </Point>
      </Placemark>
      <Placemark>
        <name>Sta 0+029.26</name>
        <description>Type: IfcBuildingElementProxy</description>
        <styleUrl>#pointStyle</styleUrl>
        <Point>
          <altitudeMode>clampToGround</altitudeMode>
          <coordinates>-121.05514340,39.16924899,0.00</coordinates>
        </Point>
      </Placemark>
      <Placemark>
        <name>Sta 0+058.52</name>
        <description>Type: IfcBuildingElementProxy</description>
        <styleUrl>#pointStyle</styleUrl>
        <Point>
          <altitudeMode>clampToGround</altitudeMode>
          <coordinates>-121.05501182,39.16949653,0.00</coordinates>
        </Point>
      </Placemark>
      <Placemark>
        <name>Sta 0+073.15</name>
        <description>Type: IfcBuildingElementProxy</description>
        <styleUrl>#pointStyle</styleUrl>
        <Point>
          <altitudeMode>clampToGround</altitudeMode>
          <coordinates>-121.05494980,39.16962147,0.00</coordinates>
        </Point>
      </Placemark>
      <Placemark>
        <name>Sta 0+087.78</name>
        <description>Type: IfcBuildingElementProxy</description>
        <styleUrl>#pointStyle</styleUrl>
        <Point>
          <altitudeMode>clampToGround</altitudeMode>
          <coordinates>-121.05489030,39.16974717,0.00</coordinates>
        </Point>
      </Placemark>
      <Placemark>
        <name>Sta 0+095.10</name>
        <description>Type: IfcBuildingElementProxy</description>
        <styleUrl>#pointStyle</styleUrl>
        <Point>
          <altitudeMode>clampToGround</altitudeMode>
          <coordinates>-121.05486151,39.16981028,0.00</coordinates>
        </Point>
      </Placemark>
      <Placemark>
        <name>Sta 0+109.73</name>
        <description>Type: IfcBuildingElementProxy</description>
        <styleUrl>#pointStyle</styleUrl>
        <Point>
          <altitudeMode>clampToGround</altitudeMode>
          <coordinates>-121.05480584,39.16993703,0.00</coordinates>
        </Point>
      </Placemark>
      <Placemark>
        <name>Sta 0+117.4</name>
        <description>Type: IfcBuildingElementProxy</description>
        <styleUrl>#pointStyle</styleUrl>
        <Point>
          <altitudeMode>clampToGround</altitudeMode>
          <coordinates>-121.05477897,39.17000065,0.00</coordinates>
        </Point>
      </Placemark>
      <Placemark>
        <name>Sta 0+124.36</name>
        <description>Type: IfcBuildingElementProxy</description>
        <styleUrl>#pointStyle</styleUrl>
        <Point>
          <altitudeMode>clampToGround</altitudeMode>
          <coordinates>-121.05475274,39.17006444,0.00</coordinates>
        </Point>
      </Placemark>
      <Placemark>
        <name>Sta 0+146.30</name>
        <description>Type: IfcBuildingElementProxy</description>
        <styleUrl>#pointStyle</styleUrl>
        <Point>
          <altitudeMode>clampToGround</altitudeMode>
          <coordinates>-121.05467792,39.17025674,0.00</coordinates>
        </Point>
      </Placemark>
      <Placemark>
        <name>Sta 0+160.93</name>
        <description>Type: IfcBuildingElementProxy</description>
        <styleUrl>#pointStyle</styleUrl>
        <Point>
          <altitudeMode>clampToGround</altitudeMode>
          <coordinates>-121.05463129,39.17038568,0.00</coordinates>
        </Point>
      </Placemark>
      <Placemark>
        <name>Sta 0+175.57</name>
        <description>Type: IfcBuildingElementProxy</description>
        <styleUrl>#pointStyle</styleUrl>
        <Point>
          <altitudeMode>clampToGround</altitudeMode>
          <coordinates>-121.05458727,39.17051518,0.00</coordinates>
        </Point>
      </Placemark>
      <Placemark>
        <name>Sta 0+182.88</name>
        <description>Type: IfcBuildingElementProxy</description>
        <styleUrl>#pointStyle</styleUrl>
        <Point>
          <altitudeMode>clampToGround</altitudeMode>
          <coordinates>-121.05456624,39.17058012,0.00</coordinates>
        </Point>
      </Placemark>
      <Placemark>
        <name>Sta 0+190.20</name>
        <description>Type: IfcBuildingElementProxy</description>
        <styleUrl>#pointStyle</styleUrl>
        <Point>
          <altitudeMode>clampToGround</altitudeMode>
          <coordinates>-121.05454587,39.17064519,0.00</coordinates>
        </Point>
      </Placemark>
      <Placemark>
        <name>Sta 0+197.51</name>
        <description>Type: IfcBuildingElementProxy</description>
        <styleUrl>#pointStyle</styleUrl>
        <Point>
          <altitudeMode>clampToGround</altitudeMode>
          <coordinates>-121.05452615,39.17071039,0.00</coordinates>
        </Point>
      </Placemark>
      <Placemark>
        <name>Sta 0+204.83</name>
        <description>Type: IfcBuildingElementProxy</description>
        <styleUrl>#pointStyle</styleUrl>
        <Point>
          <altitudeMode>clampToGround</altitudeMode>
          <coordinates>-121.05450709,39.17077570,0.00</coordinates>
        </Point>
      </Placemark>
      <Placemark>
        <name>Sta 0+212.14</name>
        <description>Type: IfcBuildingElementProxy</description>
        <styleUrl>#pointStyle</styleUrl>
        <Point>
          <altitudeMode>clampToGround</altitudeMode>
          <coordinates>-121.05448870,39.17084113,0.00</coordinates>
        </Point>
      </Placemark>
      <Placemark>
        <name>Sta 0+219.46</name>
        <description>Type: IfcBuildingElementProxy</description>
        <styleUrl>#pointStyle</styleUrl>
        <Point>
          <altitudeMode>clampToGround</altitudeMode>
          <coordinates>-121.05447096,39.17090667,0.00</coordinates>
        </Point>
      </Placemark>
      <Placemark>
        <name>Sta 0+226.77</name>
        <description>Type: IfcBuildingElementProxy</description>
        <styleUrl>#pointStyle</styleUrl>
        <Point>
          <altitudeMode>clampToGround</altitudeMode>
          <coordinates>-121.05445389,39.17097231,0.00</coordinates>
        </Point>
      </Placemark>
      <Placemark>
        <name>Sta 0+234.9</name>
        <description>Type: IfcBuildingElementProxy</description>
        <styleUrl>#pointStyle</styleUrl>
        <Point>
          <altitudeMode>clampToGround</altitudeMode>
          <coordinates>-121.05443748,39.17103806,0.00</coordinates>
        </Point>
      </Placemark>
      <Placemark>
        <name>Sta 0+248.72</name>
        <description>Type: IfcBuildingElementProxy</description>
        <styleUrl>#pointStyle</styleUrl>
        <Point>
          <altitudeMode>clampToGround</altitudeMode>
          <coordinates>-121.05440666,39.17116984,0.00</coordinates>
        </Point>
      </Placemark>
      <Placemark>
        <name>Sta 0+256.3</name>
        <description>Type: IfcBuildingElementProxy</description>
        <styleUrl>#pointStyle</styleUrl>
        <Point>
          <altitudeMode>clampToGround</altitudeMode>
          <coordinates>-121.05439225,39.17123587,0.00</coordinates>
        </Point>
      </Placemark>
      <Placemark>
        <name>Sta 0+263.35</name>
        <description>Type: IfcBuildingElementProxy</description>
        <styleUrl>#pointStyle</styleUrl>
        <Point>
          <altitudeMode>clampToGround</altitudeMode>
          <coordinates>-121.05437850,39.17130199,0.00</coordinates>
        </Point>
      </Placemark>
      <Placemark>
        <name>Sta 0+265.79</name>
        <description>Type: IfcBuildingElementProxy</description>
        <styleUrl>#pointStyle</styleUrl>
        <Point>
          <altitudeMode>clampToGround</altitudeMode>
          <coordinates>-121.05437407,39.17132404,0.00</coordinates>
        </Point>
      </Placemark>
    </Folder>
  </Document></kml>